{
  "type": "FeatureCollection",
  "features": [
    {
      "type": "Feature",
      "properties": {
        "norad_id": 46430,
        "name": "COSMOS 2251 DEB",
        "group": "cosmos-2251-debris",
        "lat": -72.06465861661219,
        "lon": -65.9042090424687,
        "alt_km": 655.3255118044917,
        "timestamp": "2025-12-12T07:43:20.914431+00:00",
        "meta_object_name": "COSMOS 2251 DEB",
        "meta_object_id": "1993-036BWU",
        "meta_epoch": "2025-12-03T09:00:26.936928",
        "meta_mean_motion": 14.51043928,
        "meta_eccentricity": 0.01031866,
        "meta_inclination": 73.9151,
        "meta_ra_of_asc_node": 14.104,
        "meta_arg_of_pericenter": 295.9829,
        "meta_mean_anomaly": 63.073,
        "meta_ephemeris_type": 0,
        "meta_classification_type": "U",
        "meta_norad_cat_id": 46430,
        "meta_element_set_no": 999,
        "meta_rev_at_epoch": 79547,
        "meta_bstar": 0.0030362826,
        "meta_mean_motion_dot": 0.00012872,
        "meta_mean_motion_ddot": 0,
        "tle_line1": "1 46430U 93036BWU 25337.37531177  .00012872  00000+0  30363-2 0  9998",
        "tle_line2": "2 46430  73.9151  14.1040 0103186 295.9829  63.0730 14.51043928795476"
      },
      "geometry": {
        "type": "Point",
        "coordinates": [
          -65.9042090424687,
          -72.06465861661219
        ]
      }
    },
    {
      "type": "Feature",
      "properties": {
        "norad_id": 46432,
        "name": "COSMOS 2251 DEB",
        "group": "cosmos-2251-debris",
        "lat": -35.09793393763692,
        "lon": -56.31483190870429,
        "alt_km": 780.343189234668,
        "timestamp": "2025-12-12T07:43:20.914441+00:00",
        "meta_object_name": "COSMOS 2251 DEB",
        "meta_object_id": "1993-036BWW",
        "meta_epoch": "2025-12-10T15:12:54.844704",
        "meta_mean_motion": 13.36630678,
        "meta_eccentricity": 0.047382,
        "meta_inclination": 73.872,
        "meta_ra_of_asc_node": 114.6117,
        "meta_arg_of_pericenter": 232.4487,
        "meta_mean_anomaly": 146.831,
        "meta_ephemeris_type": 0,
        "meta_classification_type": "U",
        "meta_norad_cat_id": 46432,
        "meta_element_set_no": 999,
        "meta_rev_at_epoch": 66938,
        "meta_bstar": 0.0019144,
        "meta_mean_motion_dot": 1.863e-05,
        "meta_mean_motion_ddot": 0,
        "tle_line1": "1 46432U 93036BWW 25344.63396811  .00001863  00000+0  19144-2 0  9993",
        "tle_line2": "2 46432  73.8720 114.6117 0473820 232.4487 146.8310 13.36630678669381"
      },
      "geometry": {
        "type": "Point",
        "coordinates": [
          -56.31483190870429,
          -35.09793393763692
        ]
      }
    },
    {
      "type": "Feature",
      "properties": {
        "norad_id": 47045,
        "name": "COSMOS 2251 DEB",
        "group": "cosmos-2251-debris",
        "lat": 66.15132866567589,
        "lon": -70.35243163254289,
        "alt_km": 776.8720546650566,
        "timestamp": "2025-12-12T07:43:20.914452+00:00",
        "meta_object_name": "COSMOS 2251 DEB",
        "meta_object_id": "1993-036BWZ",
        "meta_epoch": "2025-12-08T18:12:30.966336",
        "meta_mean_motion": 14.3889696,
        "meta_eccentricity": 0.00302024,
        "meta_inclination": 74.0568,
        "meta_ra_of_asc_node": 156.4972,
        "meta_arg_of_pericenter": 298.2595,
        "meta_mean_anomaly": 80.2379,
        "meta_ephemeris_type": 0,
        "meta_classification_type": "U",
        "meta_norad_cat_id": 47045,
        "meta_element_set_no": 999,
        "meta_rev_at_epoch": 7748,
        "meta_bstar": 0.00016053941,
        "meta_mean_motion_dot": 4.71e-06,
        "meta_mean_motion_ddot": 0,
        "tle_line1": "1 47045U 93036BWZ 25342.75869174  .00000471  00000+0  16054-3 0  9994",
        "tle_line2": "2 47045  74.0568 156.4972 0030202 298.2595  80.2379 14.38896960 77482"
      },
      "geometry": {
        "type": "Point",
        "coordinates": [
          -70.35243163254289,
          66.15132866567589
        ]
      }
    },
    {
      "type": "Feature",
      "properties": {
        "norad_id": 47048,
        "name": "COSMOS 2251 DEB",
        "group": "cosmos-2251-debris",
        "lat": 12.321620607349098,
        "lon": -36.4201275009466,
        "alt_km": 785.4468802827978,
        "timestamp": "2025-12-12T07:43:20.914462+00:00",
        "meta_object_name": "COSMOS 2251 DEB",
        "meta_object_id": "1993-036BXC",
        "meta_epoch": "2025-12-07T07:15:38.269728",
        "meta_mean_motion": 14.52229932,
        "meta_eccentricity": 0.0133232,
        "meta_inclination": 73.9782,
        "meta_ra_of_asc_node": 329.4737,
        "meta_arg_of_pericenter": 158.8085,
        "meta_mean_anomaly": 264.4528,
        "meta_ephemeris_type": 0,
        "meta_classification_type": "U",
        "meta_norad_cat_id": 47048,
        "meta_element_set_no": 999,
        "meta_rev_at_epoch": 59611,
        "meta_bstar": 0.0016547605,
        "meta_mean_motion_dot": 7.524e-05,
        "meta_mean_motion_ddot": 0,
        "tle_line1": "1 47048U 93036BXC 25341.30252627  .00007524  00000+0  16548-2 0  9999",
        "tle_line2": "2 47048  73.9782 329.4737 0133232 158.8085 264.4528 14.52229932596117"
      },
      "geometry": {
        "type": "Point",
        "coordinates": [
          -36.4201275009466,
          12.321620607349098
        ]
      }
    },
    {
      "type": "Feature",
      "properties": {
        "norad_id": 47051,
        "name": "COSMOS 2251 DEB",
        "group": "cosmos-2251-debris",
        "lat": 67.26478088638432,
        "lon": -38.578264997298696,
        "alt_km": 1249.4063287847612,
        "timestamp": "2025-12-12T07:43:20.914473+00:00",
        "meta_object_name": "COSMOS 2251 DEB",
        "meta_object_id": "1993-036BXF",
        "meta_epoch": "2025-12-07T08:40:13.029888",
        "meta_mean_motion": 13.67092269,
        "meta_eccentricity": 0.03407698,
        "meta_inclination": 74.1016,
        "meta_ra_of_asc_node": 192.3794,
        "meta_arg_of_pericenter": 307.1463,
        "meta_mean_anomaly": 234.2047,
        "meta_ephemeris_type": 0,
        "meta_classification_type": "U",
        "meta_norad_cat_id": 47051,
        "meta_element_set_no": 999,
        "meta_rev_at_epoch": 59864,
        "meta_bstar": 0.0022022876,
        "meta_mean_motion_dot": 2.731e-05,
        "meta_mean_motion_ddot": 0,
        "tle_line1": "1 47051U 93036BXF 25341.36126192  .00002731  00000+0  22023-2 0  9996",
        "tle_line2": "2 47051  74.1016 192.3794 0340769 307.1463 234.2047 13.67092269598645"
      },
      "geometry": {
        "type": "Point",
        "coordinates": [
          -38.578264997298696,
          67.26478088638432
        ]
      }
    },
    {
      "type": "Feature",
      "properties": {
        "norad_id": 47052,
        "name": "COSMOS 2251 DEB",
        "group": "cosmos-2251-debris",
        "lat": 60.65138377908112,
        "lon": 11.668073681257061,
        "alt_km": 726.3669382717735,
        "timestamp": "2025-12-12T07:43:20.914505+00:00",
        "meta_object_name": "COSMOS 2251 DEB",
        "meta_object_id": "1993-036BXG",
        "meta_epoch": "2025-12-10T17:46:39.199872",
        "meta_mean_motion": 14.35475987,
        "meta_eccentricity": 0.00579259,
        "meta_inclination": 74.0489,
        "meta_ra_of_asc_node": 343.9911,
        "meta_arg_of_pericenter": 58.7929,
        "meta_mean_anomaly": 119.1053,
        "meta_ephemeris_type": 0,
        "meta_classification_type": "U",
        "meta_norad_cat_id": 47052,
        "meta_element_set_no": 999,
        "meta_rev_at_epoch": 61760,
        "meta_bstar": 0.00039499211,
        "meta_mean_motion_dot": 1.132e-05,
        "meta_mean_motion_ddot": 0,
        "tle_line1": "1 47052U 93036BXG 25344.74073148  .00001132  00000+0  39499-3 0  9994",
        "tle_line2": "2 47052  74.0489 343.9911 0057925  58.7929 119.1053 14.35475987617603"
      },
      "geometry": {
        "type": "Point",
        "coordinates": [
          11.668073681257061,
          60.65138377908112
        ]
      }
    },
    {
      "type": "Feature",
      "properties": {
        "norad_id": 47053,
        "name": "COSMOS 2251 DEB",
        "group": "cosmos-2251-debris",
        "lat": -50.184451006063604,
        "lon": -125.31458061567584,
        "alt_km": 1180.8151380543395,
        "timestamp": "2025-12-12T07:43:20.914517+00:00",
        "meta_object_name": "COSMOS 2251 DEB",
        "meta_object_id": "1993-036BXH",
        "meta_epoch": "2025-12-11T02:15:18.253728",
        "meta_mean_motion": 13.59660001,
        "meta_eccentricity": 0.03765467,
        "meta_inclination": 74.0597,
        "meta_ra_of_asc_node": 256.721,
        "meta_arg_of_pericenter": 70.6385,
        "meta_mean_anomaly": 352.548,
        "meta_ephemeris_type": 0,
        "meta_classification_type": "U",
        "meta_norad_cat_id": 47053,
        "meta_element_set_no": 999,
        "meta_rev_at_epoch": 28866,
        "meta_bstar": 0.0019220925,
        "meta_mean_motion_dot": 2.258e-05,
        "meta_mean_motion_ddot": 0,
        "tle_line1": "1 47053U 93036BXH 25345.09396127  .00002258  00000+0  19221-2 0  9999",
        "tle_line2": "2 47053  74.0597 256.7210 0376546  70.6385 352.5480 13.59660001288664"
      },
      "geometry": {
        "type": "Point",
        "coordinates": [
          -125.31458061567584,
          -50.184451006063604
        ]
      }
    }
  ]
}